OBJECT_NAME,OBJECT_ID,EPOCH,MEAN_MOTION,ECCENTRICITY,INCLINATION,RA_OF_ASC_NODE,ARG_OF_PERICENTER,MEAN_ANOMALY,EPHEMERIS_TYPE,CLASSIFICATION_TYPE,NORAD_CAT_ID,ELEMENT_SET_NO,REV_AT_EPOCH,BSTAR,MEAN_MOTION_DOT,MEAN_MOTION_DDOT
STARLINK-37834,2026-126J,2026-06-19T06:00:02.000160,15.75302506,.00015084,97.2836,30.3648,100.0678,228.6697,0,U,69428,999,307,-.17329291E-2,-.252365E-2,0
STARLINK-37857,2026-126K,2026-06-19T06:00:02.000160,15.80015361,.00012706,97.2829,30.3768,90.0769,266.4441,0,U,69429,999,307,-.77644542E-3,-.141243E-2,0
STARLINK-37866,2026-126L,2026-06-19T06:00:02.000160,15.80033555,.00014641,97.2830,30.3773,97.4635,260.0801,0,U,69430,999,312,-.95261019E-3,-.172783E-2,0
STARLINK-37555,2026-126M,2026-06-19T06:00:02.000160,15.80029978,.0001518,97.2830,30.3781,96.6489,261.9220,0,U,69431,999,312,-.92794032E-3,-.168371E-2,0
STARLINK-37870,2026-126N,2026-06-19T06:00:02.000160,15.80023341,.00014992,97.2829,30.3780,97.2328,262.3672,0,U,69432,999,307,-.89212548E-3,-.161947E-2,0
STARLINK-37872,2026-126P,2026-06-19T06:00:02.000160,15.80021441,.00012785,97.2829,30.3785,96.4584,264.1666,0,U,69433,999,307,-.91505604E-3,-.166009E-2,0
STARLINK-37815,2026-126Q,2026-06-19T06:00:02.000160,15.75259982,.00016403,97.2835,30.3458,96.6564,188.0934,0,U,69434,999,307,-.95303448E-3,-.140403E-2,0
STARLINK-37801,2026-126R,2026-06-19T06:00:02.000160,15.78121024,.00016832,97.2834,30.3781,76.3461,284.8564,0,U,69435,999,312,-.13527683E-1,-.1988713E-1,0
STARLINK-37800,2026-126S,2026-06-19T06:00:02.000160,15.75205809,.00009661,97.2840,30.3742,90.4848,262.2802,0,U,69436,999,307,-.45111517E-3,-.66935E-3,0
STARLINK-37792,2026-126T,2026-06-19T06:00:02.000160,15.80030210,.00016293,97.2830,30.3802,95.5311,269.1944,0,U,69437,999,312,-.97515714E-3,-.176768E-2,0
STARLINK-37783,2026-126U,2026-06-19T06:00:02.000160,15.80026133,.00014319,97.2832,30.3810,87.8954,278.8839,0,U,69438,999,312,-.91263127E-3,-.165616E-2,0
STARLINK-37771,2026-126V,2026-06-19T06:25:17.061312,15.75231851,.00014014,97.2827,30.3522,81.9417,278.2007,0,U,69439,999,307,.95544176E-3,.145089E-2,0
STARLINK-37747,2026-126W,2026-06-19T06:00:02.000160,15.80031822,.00016116,97.2831,30.3807,94.8154,270.9317,0,U,69440,999,307,-.92620525E-3,-.168079E-2,0
STARLINK-37629,2026-127A,2026-06-19T05:03:31.341888,15.79663187,.00028014,53.1587,252.3722,21.1163,338.9974,0,U,69443,999,172,-.42839459E-2,-.736061E-2,0
STARLINK-37509,2026-127B,2026-06-19T06:31:25.117536,15.80963893,.00009602,53.1588,252.0394,90.9912,269.1221,0,U,69444,999,173,.12417723E-2,.252753E-2,0
STARLINK-37641,2026-127C,2026-06-19T04:58:17.652864,15.80949072,.00013811,53.1593,252.3475,43.5994,316.5138,0,U,69445,999,172,.10197085E-2,.206157E-2,0
STARLINK-37522,2026-127D,2026-06-19T04:56:43.025856,15.79340786,.00033203,53.1588,252.3403,14.5118,345.5999,0,U,69446,999,172,-.45408025E-2,-.766234E-2,0
STARLINK-37640,2026-127E,2026-06-19T06:25:19.994592,15.80952168,.0001418,53.1585,252.0111,44.9222,315.1915,0,U,69447,999,173,.73379954E-3,.14716E-2,0
STARLINK-37572,2026-127F,2026-06-19T03:19:04.488096,15.80938247,.00007994,53.1587,252.6243,72.0330,288.0780,0,U,69448,999,171,.172759E-2,.355778E-2,0
STARLINK-37643,2026-127G,2026-06-19T04:49:44.920704,15.77934069,.00028854,53.1583,252.3076,22.1605,337.9541,0,U,69449,999,172,-.47448546E-2,-.752138E-2,0
STARLINK-37601,2026-127H,2026-06-19T04:48:51.488352,15.76765662,.00030313,53.1587,252.3027,25.1544,334.9624,0,U,69450,999,172,-.5247018E-2,-.786115E-2,0
STARLINK-37578,2026-127J,2026-06-19T06:15:53.918208,15.80938929,.00010442,53.1586,251.9663,68.5049,291.6085,0,U,69451,999,173,.78390955E-3,.157347E-2,0
STARLINK-37577,2026-127K,2026-06-19T06:14:03.261408,15.80958210,.00014894,53.1588,251.9577,36.2017,323.9106,0,U,69452,999,173,.71516586E-3,.143382E-2,0
STARLINK-37500,2026-127L,2026-06-19T06:09:58.431456,15.80959891,.00015151,53.1586,251.9386,49.9447,310.1709,0,U,69453,999,173,.11415832E-2,.231687E-2,0
STARLINK-37575,2026-127M,2026-06-19T06:09:38.746944,15.80939044,.00018041,53.1584,251.9374,31.1716,328.9414,0,U,69454,999,173,.94796047E-3,.191181E-2,0
STARLINK-37642,2026-127N,2026-06-19T06:03:34.480224,15.80579000,.00004401,53.1587,251.9088,49.4201,310.6860,0,U,69455,999,173,-.13197879E-2,-.250344E-2,0
STARLINK-37513,2026-127P,2026-06-19T05:58:08.145696,15.80947862,.00012885,53.1587,251.8816,49.4061,310.7074,0,U,69456,999,173,.83627074E-3,.168187E-2,0
STARLINK-37563,2026-127Q,2026-06-19T05:54:23.857344,15.80919073,.00015133,53.1584,251.8650,80.2971,279.8223,0,U,69457,999,173,.91067853E-3,.183294E-2,0
STARLINK-37565,2026-127R,2026-06-19T05:55:26.664960,15.80955387,.00015044,53.1585,251.8689,20.2414,339.8668,0,U,69458,999,173,.10431304E-2,.211092E-2,0
STARLINK-37498,2026-127S,2026-06-19T05:55:27.269760,15.79428252,.00008693,53.1585,251.8691,78.9123,281.1997,0,U,69459,999,173,-.51293625E-2,-.858631E-2,0
