
STARLINK-37498
1 69459U 26127S   26170.24684340 -.00858631  00000+0 -51294-2 0  9993
2 69459  53.1585 251.8691 0000869  78.9123 281.1997 15.79428252  1730

STARLINK-37500
1 69453U 26127L   26170.25692629  .00231687  00000+0  11416-2 0  9993
2 69453  53.1586 251.9386 0001515  49.9447 310.1709 15.80959891  1737

STARLINK-37509
1 69444U 26127B   26170.27181849  .00252753  00000+0  12418-2 0  9992
2 69444  53.1588 252.0394 0000960  90.9912 269.1221 15.80963893  1735

STARLINK-37513
1 69456U 26127P   26170.24870539  .00168187  00000+0  83627-3 0  9991
2 69456  53.1587 251.8816 0001288  49.4061 310.7074 15.80947862  1738

STARLINK-37522
1 69446U 26127D   26170.20605354 -.00766234  00000+0 -45408-2 0  9990
2 69446  53.1588 252.3403 0003320  14.5118 345.5999 15.79340786  1722

STARLINK-37555
1 69431U 26126M   26170.25002315 -.00168371  00000+0 -92794-3 0  9995
2 69431  97.2830  30.3781 0001518  96.6489 261.9220 15.80029978  3120

STARLINK-37563
1 69457U 26127Q   26170.24610946  .00183294  00000+0  91068-3 0  9990
2 69457  53.1584 251.8650 0001513  80.2971 279.8223 15.80919073  1730

STARLINK-37565
1 69458U 26127R   26170.24683640  .00211092  00000+0  10431-2 0  9994
2 69458  53.1585 251.8689 0001504  20.2414 339.8668 15.80955387  1738

STARLINK-37572
1 69448U 26127F   26170.13824639  .00355778  00000+0  17276-2 0  9990
2 69448  53.1587 252.6243 0000799  72.0330 288.0780 15.80938247  1715

STARLINK-37575
1 69454U 26127M   26170.25669846  .00191181  00000+0  94796-3 0  9996
2 69454  53.1584 251.9374 0001804  31.1716 328.9414 15.80939044  1734

STARLINK-37577
1 69452U 26127K   26170.25975997  .00143382  00000+0  71517-3 0  9997
2 69452  53.1588 251.9577 0001489  36.2017 323.9106 15.80958210  1739

STARLINK-37578
1 69451U 26127J   26170.26104072  .00157347  00000+0  78391-3 0  9998
2 69451  53.1586 251.9663 0001044  68.5049 291.6085 15.80938929  1734

STARLINK-37601
1 69450U 26127H   26170.20059593 -.00786115  00000+0 -52470-2 0  9990
2 69450  53.1587 252.3027 0003031  25.1544 334.9624 15.76765662  1726

STARLINK-37629
1 69443U 26127A   26170.21077942 -.00736061  00000+0 -42839-2 0  9994
2 69443  53.1587 252.3722 0002801  21.1163 338.9974 15.79663187  1721

STARLINK-37640
1 69447U 26127E   26170.26759253  .00147160  00000+0  73380-3 0  9995
2 69447  53.1585 252.0111 0001418  44.9222 315.1915 15.80952168  1739

STARLINK-37641
1 69445U 26127C   26170.20714876  .00206157  00000+0  10197-2 0  9997
2 69445  53.1593 252.3475 0001381  43.5994 316.5138 15.80949072  1723

STARLINK-37642
1 69455U 26127N   26170.25248241 -.00250344  00000+0 -13198-2 0  9994
2 69455  53.1587 251.9088 0000440  49.4201 310.6860 15.80579000  1731

STARLINK-37643
1 69449U 26127G   26170.20121436 -.00752138  00000+0 -47449-2 0  9992
2 69449  53.1583 252.3076 0002885  22.1605 337.9541 15.77934069  1726

STARLINK-37747
1 69440U 26126W   26170.25002315 -.00168079  00000+0 -92621-3 0  9999
2 69440  97.2831  30.3807 0001611  94.8154 270.9317 15.80031822  3075

STARLINK-37771
1 69439U 26126V   26170.26755858  .00145089  00000+0  95544-3 0  9996
2 69439  97.2827  30.3522 0001401  81.9417 278.2007 15.75231851  3073

STARLINK-37783
1 69438U 26126U   26170.25002315 -.00165616  00000+0 -91263-3 0  9991
2 69438  97.2832  30.3810 0001431  87.8954 278.8839 15.80026133  3128

STARLINK-37792
1 69437U 26126T   26170.25002315 -.00176768  00000+0 -97516-3 0  9997
2 69437  97.2830  30.3802 0001629  95.5311 269.1944 15.80030210  3129

STARLINK-37800
1 69436U 26126S   26170.25002315 -.00066935  00000+0 -45112-3 0  9995
2 69436  97.2840  30.3742 0000966  90.4848 262.2802 15.75205809  3077

STARLINK-37801
1 69435U 26126R   26170.25002315 -.01988713  00000+0 -13528-1 0  9996
2 69435  97.2834  30.3781 0001683  76.3461 284.8564 15.78121024  3123

STARLINK-37815
1 69434U 26126Q   26170.25002315 -.00140403  00000+0 -95303-3 0  9993
2 69434  97.2835  30.3458 0001640  96.6564 188.0934 15.75259982  3078

STARLINK-37834
1 69428U 26126J   26170.25002315 -.00252365  00000+0 -17329-2 0  9998
2 69428  97.2836  30.3648 0001508 100.0678 228.6697 15.75302506  3070

STARLINK-37857
1 69429U 26126K   26170.25002315 -.00141243  00000+0 -77645-3 0  9999
2 69429  97.2829  30.3768 0001270  90.0769 266.4441 15.80015361  3074

STARLINK-37866
1 69430U 26126L   26170.25002315 -.00172783  00000+0 -95261-3 0  9998
2 69430  97.2830  30.3773 0001464  97.4635 260.0801 15.80033555  3123

STARLINK-37870
1 69432U 26126N   26170.25002315 -.00161947  00000+0 -89213-3 0  9990
2 69432  97.2829  30.3780 0001499  97.2328 262.3672 15.80023341  3073

STARLINK-37872
1 69433U 26126P   26170.25002315 -.00166009  00000+0 -91506-3 0  9993
2 69433  97.2829  30.3785 0001278  96.4584 264.1666 15.80021441  3071
